INTELSAT 902 (IS-902)   
1 26900U 01039A   26179.59706030 -.00000278  00000+0  00000+0 0  9991
2 26900   6.1449  71.6447 0004206  26.0472 343.8308  1.00270785 90812
INTELSAT 904 (IS-904)   
1 27380U 02007A   26179.51260638 -.00000220  00000+0  00000+0 0  9998
2 27380   6.9472  69.0501 0006497  12.3783 348.2351  1.00272689 51884
DIRECTV 5 (TEMPO 1)     
1 27426U 02023A   26179.85372685 -.00000050  00000+0  00000+0 0  9991
2 27426   4.9065  75.1693 0003564  27.9556  11.0563  1.00271694 88248
INTELSAT 905 (IS-905)   
1 27438U 02027A   26179.77717119  .00000099  00000+0  00000+0 0  9996
2 27438   6.7814  69.6623 0004145  29.2646 320.5164  1.00272761 51471
GALAXY 3C (G-3C)        
1 27445U 02030A   26179.85683266 -.00000145  00000+0  00000+0 0  9995
2 27445   3.7618  77.8298 0001992  26.4985  26.2453  1.00272292 46619
INTELSAT 906 (IS-906)   
1 27513U 02041A   26179.94505507  .00000019  00000+0  00000+0 0  9993
2 27513   5.8316  72.7772 0004150   9.5132 239.1073  1.00272587 87142
GALAXY 13 (HORIZONS-1)  
1 27954U 03044A   26179.70334023  .00000143  00000+0  00000+0 0  9991
2 27954   1.4483  83.7196 0001696   6.6843 289.5725  1.00270525 46686
INTELSAT 10-02          
1 28358U 04022A   26179.37631979  .00000002  00000+0  00000+0 0  9994
2 28358   0.0291 284.0988 0000745 227.6296 259.2227  1.00279320 80662
DIRECTV 8               
1 28659U 05019A   26179.62672270  .00000013  00000+0  00000+0 0  9994
2 28659   0.0257  73.5054 0003331  29.9467 279.8380  1.00271971 77185
GALAXY 28 (G-28)        
1 28702U 05022A   26179.95794135 -.00000192  00000+0  00000+0 0  9997
2 28702   3.3280  78.7899 0002269  20.1879 135.8195  1.00270576 52097
GALAXY 16 (G-16)        
1 29236U 06023A   26179.64206647 -.00000115  00000+0  00000+0 0  9999
2 29236   0.0443 116.2985 0002874 331.8574 320.7141  1.00271983 73086
DIRECTV 9S              
1 29494U 06043A   26179.62047512 -.00000104  00000+0  00000+0 0  9997
2 29494   2.4493  80.7753 0005439  20.1654 297.9440  1.00271910 51496
GALAXY 17 (G-17)        
1 31307U 07016B   26179.85873934 -.00000197  00000+0  00000+0 0  9996
2 31307   3.0005  79.7617 0004618  22.2199  39.0968  1.00270771 69921
INTELSAT 11 (IS-11)     
1 32253U 07044B   26179.89028425  .00000069  00000+0  00000+0 0  9996
2 32253   3.5949  78.5353 0003209  85.2697 148.0170  0.99047604 68564
HORIZONS-2              
1 32388U 07063B   26179.86099269 -.00000244  00000+0  00000+0 0  9993
2 32388   2.6312  80.4919 0004160   8.6776  63.9315  1.00270689 67931
DIRECTV 11              
1 32729U 08013A   26179.60209420 -.00000113  00000+0  00000+0 0  9997
2 32729   0.0109 259.7989 0000553 121.5321  12.9287  1.00262791 45705
GALAXY 18 (G-18)        
1 32951U 08024A   26179.70862692  .00000000  00000+0  00000+0 0  9997
2 32951   0.0281  33.5910 0003248  69.0413 306.2771  1.00270216 45963
GALAXY 19 (G-19)        
1 33376U 08045A   26179.79404296 -.00000128  00000+0  00000+0 0  9995
2 33376   0.0399 260.6478 0002972 207.8638 357.2239  1.00271073 65027
FM-5                    
1 35493U 09034A   26179.78713791 -.00000189  00000+0  00000+0 0  9995
2 35493   0.0314 283.1373 0001083  68.5106 122.4382  1.00270923 46768
INTELSAT 14 (IS-14)     
1 36097U 09064A   26179.93795740 -.00000262  00000+0  00000+0 0  9992
2 36097   0.0133  46.8113 0002712  52.2558 110.6292  1.00271751 60726
INTELSAT 15 (IS-15)     
1 36106U 09067A   26179.77038850 -.00000173  00000+0  00000+0 0  9991
2 36106   0.0187  55.7391 0002599  47.5445 176.0648  1.00271075 41345
DIRECTV 12              
1 36131U 09075A   26179.92648976 -.00000092  00000+0  00000+0 0  9991
2 36131   0.0211 181.4748 0000373 280.5830  45.7686  1.00270837 46679
INTELSAT 16 (IS-16)     
1 36397U 10006A   26179.86047269 -.00000233  00000+0  00000+0 0  9999
2 36397   0.0177  45.6295 0002470  66.2685  38.6233  1.00271723 59778
XM-5                    
1 37185U 10053A   26179.92406309 -.00000012  00000+0  00000+0 0  9993
2 37185   0.0684 270.0290 0002446 284.5507 299.9032  1.00271521 57602
INTELSAT 17 (IS-17)     
1 37238U 10065B   26179.94755955  .00000010  00000+0  00000+0 0  9998
2 37238   0.0047 258.9526 0002529 200.4168 224.7833  1.00269829 53365
INTELSAT 28 (IS-28)     
1 37392U 11016A   26179.95412051 -.00000215  00000+0  00000+0 0  9992
2 37392   1.8356  82.4887 0004047  14.6279 131.6737  1.00271053 53409
INTELSAT 18 (IS-18)     
1 37834U 11056A   26179.83994679  .00000065  00000+0  00000+0 0  9997
2 37834   0.0180 335.9741 0002121 127.6048 295.7385  1.00273760 53926
INTELSAT 22 (IS-22)     
1 38098U 12011A   26179.03439581  .00000000  00000+0  00000+0 0  9999
2 38098   0.0414  59.1672 0001393  74.4662 226.9912  1.00263922  7298
INTELSAT 19 (IS-19)     
1 38356U 12030A   26179.83717345 -.00000045  00000+0  00000+0 0  9992
2 38356   0.0044  29.2791 0003429  77.2627 277.7696  1.00271420 50561
INTELSAT 20 (IS-20)     
1 38740U 12043A   26179.87683578  .00000000  00000+0  00000+0 0  9997
2 38740   0.0434  74.6500 0002472 108.3479 118.1184  1.00268936 50862
INTELSAT 21 (IS-21)     
1 38749U 12045A   26179.86411270 -.00000274  00000+0  00000+0 0  9999
2 38749   0.0300  72.7943 0002169  27.1011  70.1547  1.00276252 50642
